[{"OBJECT_NAME":"STARLINK-35339","OBJECT_ID":"2025-232Z","EPOCH":"2025-11-05T22:00:01.999584","MEAN_MOTION":15.54759732,"ECCENTRICITY":0.00013117,"INCLINATION":53.1596,"RA_OF_ASC_NODE":320.8322,"ARG_OF_PERICENTER":76.2373,"MEAN_ANOMALY":42.3972,"EPHEMERIS_TYPE":0,"CLASSIFICATION_TYPE":"U","NORAD_CAT_ID":66028,"ELEMENT_SET_NO":999,"REV_AT_EPOCH":356,"BSTAR":-0.033695888,"MEAN_MOTION_DOT":-0.02035691,"MEAN_MOTION_DDOT":0},{"OBJECT_NAME":"STARLINK-35399","OBJECT_ID":"2025-232AA","EPOCH":"2025-11-05T22:00:01.999584","MEAN_MOTION":15.54760795,"ECCENTRICITY":0.00012654,"INCLINATION":53.1593,"RA_OF_ASC_NODE":320.8281,"ARG_OF_PERICENTER":79.4626,"MEAN_ANOMALY":41.0843,"EPHEMERIS_TYPE":0,"CLASSIFICATION_TYPE":"U","NORAD_CAT_ID":66029,"ELEMENT_SET_NO":999,"REV_AT_EPOCH":356,"BSTAR":-0.033617334,"MEAN_MOTION_DOT":-0.02031494,"MEAN_MOTION_DDOT":0},{"OBJECT_NAME":"STARLINK-35431","OBJECT_ID":"2025-232AB","EPOCH":"2025-11-05T22:00:01.999584","MEAN_MOTION":15.54758361,"ECCENTRICITY":0.00014254,"INCLINATION":53.1596,"RA_OF_ASC_NODE":320.8234,"ARG_OF_PERICENTER":79.0979,"MEAN_ANOMALY":43.3654,"EPHEMERIS_TYPE":0,"CLASSIFICATION_TYPE":"U","NORAD_CAT_ID":66030,"ELEMENT_SET_NO":999,"REV_AT_EPOCH":356,"BSTAR":-0.03355392,"MEAN_MOTION_DOT":-0.02028004,"MEAN_MOTION_DDOT":0},{"OBJECT_NAME":"STARLINK-35326","OBJECT_ID":"2025-232AC","EPOCH":"2025-11-05T22:00:01.999584","MEAN_MOTION":15.54755999,"ECCENTRICITY":0.00014528,"INCLINATION":53.1594,"RA_OF_ASC_NODE":320.8201,"ARG_OF_PERICENTER":79.1289,"MEAN_ANOMALY":45.2523,"EPHEMERIS_TYPE":0,"CLASSIFICATION_TYPE":"U","NORAD_CAT_ID":66031,"ELEMENT_SET_NO":999,"REV_AT_EPOCH":362,"BSTAR":-0.033472917,"MEAN_MOTION_DOT":-0.02023486,"MEAN_MOTION_DDOT":0},{"OBJECT_NAME":"STARLINK-35311","OBJECT_ID":"2025-232AD","EPOCH":"2025-11-05T22:00:01.999584","MEAN_MOTION":15.5475504,"ECCENTRICITY":0.00013036,"INCLINATION":53.1593,"RA_OF_ASC_NODE":320.8157,"ARG_OF_PERICENTER":70.5353,"MEAN_ANOMALY":55.7655,"EPHEMERIS_TYPE":0,"CLASSIFICATION_TYPE":"U","NORAD_CAT_ID":66032,"ELEMENT_SET_NO":999,"REV_AT_EPOCH":362,"BSTAR":-0.033498394,"MEAN_MOTION_DOT":-0.02024707,"MEAN_MOTION_DDOT":0},{"OBJECT_NAME":"STARLINK-35552","OBJECT_ID":"2025-235A","EPOCH":"2025-11-05T22:00:01.999584","MEAN_MOTION":15.71323293,"ECCENTRICITY":0.00013016,"INCLINATION":53.156,"RA_OF_ASC_NODE":103.3359,"ARG_OF_PERICENTER":36.9447,"MEAN_ANOMALY":79.1949,"EPHEMERIS_TYPE":0,"CLASSIFICATION_TYPE":"U","NORAD_CAT_ID":66058,"ELEMENT_SET_NO":999,"REV_AT_EPOCH":395,"BSTAR":0.001294602,"MEAN_MOTION_DOT":0.00170652,"MEAN_MOTION_DDOT":0},{"OBJECT_NAME":"STARLINK-35560","OBJECT_ID":"2025-235B","EPOCH":"2025-11-05T22:00:01.999584","MEAN_MOTION":15.64274608,"ECCENTRICITY":0.00012044,"INCLINATION":53.1598,"RA_OF_ASC_NODE":103.3739,"ARG_OF_PERICENTER":50.6704,"MEAN_ANOMALY":47.2826,"EPHEMERIS_TYPE":0,"CLASSIFICATION_TYPE":"U","NORAD_CAT_ID":66059,"ELEMENT_SET_NO":999,"REV_AT_EPOCH":395,"BSTAR":-0.022483959,"MEAN_MOTION_DOT":-0.01931709,"MEAN_MOTION_DDOT":0},{"OBJECT_NAME":"STARLINK-35558","OBJECT_ID":"2025-235C","EPOCH":"2025-11-05T22:00:01.999584","MEAN_MOTION":15.64281046,"ECCENTRICITY":0.00012254,"INCLINATION":53.1598,"RA_OF_ASC_NODE":103.3685,"ARG_OF_PERICENTER":51.5764,"MEAN_ANOMALY":48.29,"EPHEMERIS_TYPE":0,"CLASSIFICATION_TYPE":"U","NORAD_CAT_ID":66060,"ELEMENT_SET_NO":999,"REV_AT_EPOCH":395,"BSTAR":-0.022578708,"MEAN_MOTION_DOT":-0.01939347,"MEAN_MOTION_DDOT":0},{"OBJECT_NAME":"STARLINK-35566","OBJECT_ID":"2025-235D","EPOCH":"2025-11-05T22:00:01.999584","MEAN_MOTION":15.6428247,"ECCENTRICITY":0.00011829,"INCLINATION":53.1599,"RA_OF_ASC_NODE":103.3657,"ARG_OF_PERICENTER":54.9665,"MEAN_ANOMALY":46.8159,"EPHEMERIS_TYPE":0,"CLASSIFICATION_TYPE":"U","NORAD_CAT_ID":66061,"ELEMENT_SET_NO":999,"REV_AT_EPOCH":395,"BSTAR":-0.022595327,"MEAN_MOTION_DOT":-0.01940674,"MEAN_MOTION_DDOT":0},{"OBJECT_NAME":"STARLINK-35421","OBJECT_ID":"2025-235E","EPOCH":"2025-11-05T22:00:01.999584","MEAN_MOTION":15.64277565,"ECCENTRICITY":0.00011717,"INCLINATION":53.16,"RA_OF_ASC_NODE":103.361,"ARG_OF_PERICENTER":55.4333,"MEAN_ANOMALY":48.2676,"EPHEMERIS_TYPE":0,"CLASSIFICATION_TYPE":"U","NORAD_CAT_ID":66062,"ELEMENT_SET_NO":999,"REV_AT_EPOCH":395,"BSTAR":-0.022506254,"MEAN_MOTION_DOT":-0.01933579,"MEAN_MOTION_DDOT":0},{"OBJECT_NAME":"STARLINK-35562","OBJECT_ID":"2025-235F","EPOCH":"2025-11-05T22:00:01.999584","MEAN_MOTION":15.64279785,"ECCENTRICITY":0.00011873,"INCLINATION":53.1598,"RA_OF_ASC_NODE":103.3574,"ARG_OF_PERICENTER":52.7595,"MEAN_ANOMALY":52.8561,"EPHEMERIS_TYPE":0,"CLASSIFICATION_TYPE":"U","NORAD_CAT_ID":66063,"ELEMENT_SET_NO":999,"REV_AT_EPOCH":395,"BSTAR":-0.022539332,"MEAN_MOTION_DOT":-0.0193625,"MEAN_MOTION_DDOT":0},{"OBJECT_NAME":"STARLINK-35542","OBJECT_ID":"2025-235G","EPOCH":"2025-11-05T22:00:01.999584","MEAN_MOTION":15.64278901,"ECCENTRICITY":0.00011923,"INCLINATION":53.1598,"RA_OF_ASC_NODE":103.3526,"ARG_OF_PERICENTER":55.9411,"MEAN_ANOMALY":51.5933,"EPHEMERIS_TYPE":0,"CLASSIFICATION_TYPE":"U","NORAD_CAT_ID":66064,"ELEMENT_SET_NO":999,"REV_AT_EPOCH":395,"BSTAR":-0.022535195,"MEAN_MOTION_DOT":-0.01935879,"MEAN_MOTION_DDOT":0},{"OBJECT_NAME":"STARLINK-35375","OBJECT_ID":"2025-235H","EPOCH":"2025-11-05T22:00:01.999584","MEAN_MOTION":15.64275382,"ECCENTRICITY":0.00011607,"INCLINATION":53.1597,"RA_OF_ASC_NODE":103.3491,"ARG_OF_PERICENTER":51.7564,"MEAN_ANOMALY":57.6958,"EPHEMERIS_TYPE":0,"CLASSIFICATION_TYPE":"U","NORAD_CAT_ID":66065,"ELEMENT_SET_NO":999,"REV_AT_EPOCH":395,"BSTAR":-0.022483583,"MEAN_MOTION_DOT":-0.01931703,"MEAN_MOTION_DDOT":0},{"OBJECT_NAME":"STARLINK-35179","OBJECT_ID":"2025-235J","EPOCH":"2025-11-05T22:00:01.999584","MEAN_MOTION":15.64277464,"ECCENTRICITY":0.00011436,"INCLINATION":53.16,"RA_OF_ASC_NODE":103.3461,"ARG_OF_PERICENTER":56.0938,"MEAN_ANOMALY":55.2742,"EPHEMERIS_TYPE":0,"CLASSIFICATION_TYPE":"U","NORAD_CAT_ID":66066,"ELEMENT_SET_NO":999,"REV_AT_EPOCH":395,"BSTAR":-0.022507226,"MEAN_MOTION_DOT":-0.01933626,"MEAN_MOTION_DDOT":0},{"OBJECT_NAME":"STARLINK-35401","OBJECT_ID":"2025-235K","EPOCH":"2025-11-05T22:00:01.999584","MEAN_MOTION":15.64278175,"ECCENTRICITY":0.00011731,"INCLINATION":53.1599,"RA_OF_ASC_NODE":103.3409,"ARG_OF_PERICENTER":56.5734,"MEAN_ANOMALY":56.7133,"EPHEMERIS_TYPE":0,"CLASSIFICATION_TYPE":"U","NORAD_CAT_ID":66067,"ELEMENT_SET_NO":999,"REV_AT_EPOCH":390,"BSTAR":-0.022541023,"MEAN_MOTION_DOT":-0.01936258,"MEAN_MOTION_DDOT":0},{"OBJECT_NAME":"STARLINK-35422","OBJECT_ID":"2025-235L","EPOCH":"2025-11-05T22:00:01.999584","MEAN_MOTION":15.64282067,"ECCENTRICITY":0.00012231,"INCLINATION":53.16,"RA_OF_ASC_NODE":103.337,"ARG_OF_PERICENTER":53.4112,"MEAN_ANOMALY":61.7888,"EPHEMERIS_TYPE":0,"CLASSIFICATION_TYPE":"U","NORAD_CAT_ID":66068,"ELEMENT_SET_NO":999,"REV_AT_EPOCH":390,"BSTAR":-0.022583403,"MEAN_MOTION_DOT":-0.01939771,"MEAN_MOTION_DDOT":0},{"OBJECT_NAME":"STARLINK-35279","OBJECT_ID":"2025-235M","EPOCH":"2025-11-05T22:00:01.999584","MEAN_MOTION":15.64279706,"ECCENTRICITY":0.000119,"INCLINATION":53.1599,"RA_OF_ASC_NODE":103.3332,"ARG_OF_PERICENTER":55.5701,"MEAN_ANOMALY":61.5498,"EPHEMERIS_TYPE":0,"CLASSIFICATION_TYPE":"U","NORAD_CAT_ID":66069,"ELEMENT_SET_NO":999,"REV_AT_EPOCH":395,"BSTAR":-0.022572621,"MEAN_MOTION_DOT":-0.01938769,"MEAN_MOTION_DDOT":0},{"OBJECT_NAME":"STARLINK-35295","OBJECT_ID":"2025-235N","EPOCH":"2025-11-05T22:00:01.999584","MEAN_MOTION":15.64274256,"ECCENTRICITY":0.00011806,"INCLINATION":53.16,"RA_OF_ASC_NODE":103.326,"ARG_OF_PERICENTER":61.2189,"MEAN_ANOMALY":59.735,"EPHEMERIS_TYPE":0,"CLASSIFICATION_TYPE":"U","NORAD_CAT_ID":66070,"ELEMENT_SET_NO":999,"REV_AT_EPOCH":395,"BSTAR":-0.02245001,"MEAN_MOTION_DOT":-0.01929093,"MEAN_MOTION_DDOT":0},{"OBJECT_NAME":"STARLINK-35323","OBJECT_ID":"2025-235P","EPOCH":"2025-11-05T22:00:01.999584","MEAN_MOTION":15.64277493,"ECCENTRICITY":0.00011078,"INCLINATION":53.1602,"RA_OF_ASC_NODE":103.3291,"ARG_OF_PERICENTER":61.4107,"MEAN_ANOMALY":57.6263,"EPHEMERIS_TYPE":0,"CLASSIFICATION_TYPE":"U","NORAD_CAT_ID":66071,"ELEMENT_SET_NO":999,"REV_AT_EPOCH":395,"BSTAR":-0.022520087,"MEAN_MOTION_DOT":-0.01934578,"MEAN_MOTION_DDOT":0},{"OBJECT_NAME":"STARLINK-35299","OBJECT_ID":"2025-235Q","EPOCH":"2025-11-05T22:00:01.999584","MEAN_MOTION":15.6427942,"ECCENTRICITY":0.00011944,"INCLINATION":53.1602,"RA_OF_ASC_NODE":103.3212,"ARG_OF_PERICENTER":56.649,"MEAN_ANOMALY":66.2212,"EPHEMERIS_TYPE":0,"CLASSIFICATION_TYPE":"U","NORAD_CAT_ID":66072,"ELEMENT_SET_NO":999,"REV_AT_EPOCH":395,"BSTAR":-0.02256476,"MEAN_MOTION_DOT":-0.01938156,"MEAN_MOTION_DDOT":0},{"OBJECT_NAME":"STARLINK-35274","OBJECT_ID":"2025-235R","EPOCH":"2025-11-05T22:00:01.999584","MEAN_MOTION":15.64274829,"ECCENTRICITY":0.00012175,"INCLINATION":53.1601,"RA_OF_ASC_NODE":103.3168,"ARG_OF_PERICENTER":55.1974,"MEAN_ANOMALY":69.5895,"EPHEMERIS_TYPE":0,"CLASSIFICATION_TYPE":"U","NORAD_CAT_ID":66073,"ELEMENT_SET_NO":999,"REV_AT_EPOCH":395,"BSTAR":-0.022465337,"MEAN_MOTION_DOT":-0.0193032,"MEAN_MOTION_DDOT":0},{"OBJECT_NAME":"STARLINK-35321","OBJECT_ID":"2025-235S","EPOCH":"2025-11-05T22:00:01.999584","MEAN_MOTION":15.64275194,"ECCENTRICITY":0.00012393,"INCLINATION":53.16,"RA_OF_ASC_NODE":103.3125,"ARG_OF_PERICENTER":60.3731,"MEAN_ANOMALY":66.3328,"EPHEMERIS_TYPE":0,"CLASSIFICATION_TYPE":"U","NORAD_CAT_ID":66074,"ELEMENT_SET_NO":999,"REV_AT_EPOCH":395,"BSTAR":-0.022488864,"MEAN_MOTION_DOT":-0.01932145,"MEAN_MOTION_DDOT":0},{"OBJECT_NAME":"STARLINK-35131","OBJECT_ID":"2025-235T","EPOCH":"2025-11-05T22:00:01.999584","MEAN_MOTION":15.64276758,"ECCENTRICITY":0.0001205,"INCLINATION":53.1603,"RA_OF_ASC_NODE":103.3,"ARG_OF_PERICENTER":60.0063,"MEAN_ANOMALY":72.448,"EPHEMERIS_TYPE":0,"CLASSIFICATION_TYPE":"U","NORAD_CAT_ID":66075,"ELEMENT_SET_NO":999,"REV_AT_EPOCH":395,"BSTAR":-0.022497755,"MEAN_MOTION_DOT":-0.01932902,"MEAN_MOTION_DDOT":0}]
